STARLINK-36826          
1 67885U 26035G   26070.83335647 -.01232844  00000+0 -67957-2 0  9995
2 67885  97.2733   3.3021 0001368  83.3025 109.7185 15.82225009  4105
STARLINK-36390          
1 67886U 26035H   26070.83335647 -.01237360  00000+0 -68560-2 0  9995
2 67886  97.2725   3.3034 0001440  87.3456 110.1377 15.82123630  4155
STARLINK-36368          
1 67887U 26035J   26070.83335647 -.01249514  00000+0 -69570-2 0  9992
2 67887  97.2727   3.3051 0001350  84.3199 117.5771 15.82047691  4104
STARLINK-36801          
1 67888U 26035K   26070.83335647 -.01260384  00000+0 -70472-2 0  9994
2 67888  97.2717   3.3064 0001374  93.3719 112.9084 15.81981289  4107
STARLINK-36372          
1 67889U 26035L   26070.83335647 -.01190214  00000+0 -66515-2 0  9992
2 67889  97.2711   3.3096 0001382  95.3368 119.6586 15.81837950  4104
STARLINK-36363          
1 67890U 26035M   26070.83335647 -.01164080  00000+0 -64932-2 0  9997
2 67890  97.2719   3.3086 0001315  97.7706 112.9556 15.81822098  4101
STARLINK-36816          
1 67891U 26035N   26070.83335647  .00015982  00000+0  83982-4 0  9999
2 67891  97.2697   3.3300 0000836  76.4970 194.7217 15.80827197  3992
STARLINK-36813          
1 67892U 26035P   26070.83335647  .00001626  00000+0  92192-5 0  9994
2 67892  97.2683   3.3183 0001370  80.0703 165.5234 15.80825249  4101
STARLINK-36803          
1 67893U 26035Q   26070.83335647 -.01031646  00000+0 -58330-2 0  9996
2 67893  97.2708   3.3112 0001224  84.4236 135.0339 15.81640832  4101
STARLINK-36846          
1 67894U 26035R   26070.83335647 -.00538391  00000+0 -29352-2 0  9997
2 67894  97.2703   3.3142 0001383  88.0050 140.3031 15.81195309  4102
STARLINK-36866          
1 67895U 26035S   26070.83335647 -.00379636  00000+0 -20447-2 0  9999
2 67895  97.2704   3.3157 0000903  91.7656 140.8847 15.81070342  4109
STARLINK-36877          
1 67896U 26035T   26070.83335647 -.00753133  00000+0 -41717-2 0  9991
2 67896  97.2708   3.3120 0001378  73.3673 150.5494 15.81379863  4102
