CCSDS_OMM_VERS = 2.0
CREATION_DATE  = 
ORIGINATOR     = 

OBJECT_NAME    = STARLINK-36826
OBJECT_ID      = 2026-035G
CENTER_NAME    = EARTH
REF_FRAME      = TEME
TIME_SYSTEM    = UTC
MEAN_ELEMENT_THEORY = SGP/SGP4

EPOCH          = 2026-03-11T20:00:01.999008
MEAN_MOTION    = 15.82225009
ECCENTRICITY   = .0001368
INCLINATION    = 97.2733
RA_OF_ASC_NODE = 3.3021
ARG_OF_PERICENTER = 83.3025
MEAN_ANOMALY   = 109.7185

EPHEMERIS_TYPE = 0
CLASSIFICATION_TYPE = U
NORAD_CAT_ID   = 67885
ELEMENT_SET_NO = 999
REV_AT_EPOCH   = 410
BSTAR          = -.67957E-2
MEAN_MOTION_DOT = -.1232844E-1
MEAN_MOTION_DDOT = 0

CCSDS_OMM_VERS = 2.0
CREATION_DATE  = 
ORIGINATOR     = 

OBJECT_NAME    = STARLINK-36390
OBJECT_ID      = 2026-035H
CENTER_NAME    = EARTH
REF_FRAME      = TEME
TIME_SYSTEM    = UTC
MEAN_ELEMENT_THEORY = SGP/SGP4

EPOCH          = 2026-03-11T20:00:01.999008
MEAN_MOTION    = 15.82123630
ECCENTRICITY   = .000144
INCLINATION    = 97.2725
RA_OF_ASC_NODE = 3.3034
ARG_OF_PERICENTER = 87.3456
MEAN_ANOMALY   = 110.1377

EPHEMERIS_TYPE = 0
CLASSIFICATION_TYPE = U
NORAD_CAT_ID   = 67886
ELEMENT_SET_NO = 999
REV_AT_EPOCH   = 415
BSTAR          = -.6856E-2
MEAN_MOTION_DOT = -.123736E-1
MEAN_MOTION_DDOT = 0

CCSDS_OMM_VERS = 2.0
CREATION_DATE  = 
ORIGINATOR     = 

OBJECT_NAME    = STARLINK-36368
OBJECT_ID      = 2026-035J
CENTER_NAME    = EARTH
REF_FRAME      = TEME
TIME_SYSTEM    = UTC
MEAN_ELEMENT_THEORY = SGP/SGP4

EPOCH          = 2026-03-11T20:00:01.999008
MEAN_MOTION    = 15.82047691
ECCENTRICITY   = .000135
INCLINATION    = 97.2727
RA_OF_ASC_NODE = 3.3051
ARG_OF_PERICENTER = 84.3199
MEAN_ANOMALY   = 117.5771

EPHEMERIS_TYPE = 0
CLASSIFICATION_TYPE = U
NORAD_CAT_ID   = 67887
ELEMENT_SET_NO = 999
REV_AT_EPOCH   = 410
BSTAR          = -.6957E-2
MEAN_MOTION_DOT = -.1249514E-1
MEAN_MOTION_DDOT = 0

CCSDS_OMM_VERS = 2.0
CREATION_DATE  = 
ORIGINATOR     = 

OBJECT_NAME    = STARLINK-36801
OBJECT_ID      = 2026-035K
CENTER_NAME    = EARTH
REF_FRAME      = TEME
TIME_SYSTEM    = UTC
MEAN_ELEMENT_THEORY = SGP/SGP4

EPOCH          = 2026-03-11T20:00:01.999008
MEAN_MOTION    = 15.81981289
ECCENTRICITY   = .0001374
INCLINATION    = 97.2717
RA_OF_ASC_NODE = 3.3064
ARG_OF_PERICENTER = 93.3719
MEAN_ANOMALY   = 112.9084

EPHEMERIS_TYPE = 0
CLASSIFICATION_TYPE = U
NORAD_CAT_ID   = 67888
ELEMENT_SET_NO = 999
REV_AT_EPOCH   = 410
BSTAR          = -.70472E-2
MEAN_MOTION_DOT = -.1260384E-1
MEAN_MOTION_DDOT = 0

CCSDS_OMM_VERS = 2.0
CREATION_DATE  = 
ORIGINATOR     = 

OBJECT_NAME    = STARLINK-36372
OBJECT_ID      = 2026-035L
CENTER_NAME    = EARTH
REF_FRAME      = TEME
TIME_SYSTEM    = UTC
MEAN_ELEMENT_THEORY = SGP/SGP4

EPOCH          = 2026-03-11T20:00:01.999008
MEAN_MOTION    = 15.81837950
ECCENTRICITY   = .0001382
INCLINATION    = 97.2711
RA_OF_ASC_NODE = 3.3096
ARG_OF_PERICENTER = 95.3368
MEAN_ANOMALY   = 119.6586

EPHEMERIS_TYPE = 0
CLASSIFICATION_TYPE = U
NORAD_CAT_ID   = 67889
ELEMENT_SET_NO = 999
REV_AT_EPOCH   = 410
BSTAR          = -.66515E-2
MEAN_MOTION_DOT = -.1190214E-1
MEAN_MOTION_DDOT = 0

CCSDS_OMM_VERS = 2.0
CREATION_DATE  = 
ORIGINATOR     = 

OBJECT_NAME    = STARLINK-36363
OBJECT_ID      = 2026-035M
CENTER_NAME    = EARTH
REF_FRAME      = TEME
TIME_SYSTEM    = UTC
MEAN_ELEMENT_THEORY = SGP/SGP4

EPOCH          = 2026-03-11T20:00:01.999008
MEAN_MOTION    = 15.81822098
ECCENTRICITY   = .0001315
INCLINATION    = 97.2719
RA_OF_ASC_NODE = 3.3086
ARG_OF_PERICENTER = 97.7706
MEAN_ANOMALY   = 112.9556

EPHEMERIS_TYPE = 0
CLASSIFICATION_TYPE = U
NORAD_CAT_ID   = 67890
ELEMENT_SET_NO = 999
REV_AT_EPOCH   = 410
BSTAR          = -.64932E-2
MEAN_MOTION_DOT = -.116408E-1
MEAN_MOTION_DDOT = 0

CCSDS_OMM_VERS = 2.0
CREATION_DATE  = 
ORIGINATOR     = 

OBJECT_NAME    = STARLINK-36816
OBJECT_ID      = 2026-035N
CENTER_NAME    = EARTH
REF_FRAME      = TEME
TIME_SYSTEM    = UTC
MEAN_ELEMENT_THEORY = SGP/SGP4

EPOCH          = 2026-03-11T20:00:01.999008
MEAN_MOTION    = 15.80827197
ECCENTRICITY   = .0000836
INCLINATION    = 97.2697
RA_OF_ASC_NODE = 3.3300
ARG_OF_PERICENTER = 76.4970
MEAN_ANOMALY   = 194.7217

EPHEMERIS_TYPE = 0
CLASSIFICATION_TYPE = U
NORAD_CAT_ID   = 67891
ELEMENT_SET_NO = 999
REV_AT_EPOCH   = 399
BSTAR          = .83982E-4
MEAN_MOTION_DOT = .15982E-3
MEAN_MOTION_DDOT = 0

CCSDS_OMM_VERS = 2.0
CREATION_DATE  = 
ORIGINATOR     = 

OBJECT_NAME    = STARLINK-36813
OBJECT_ID      = 2026-035P
CENTER_NAME    = EARTH
REF_FRAME      = TEME
TIME_SYSTEM    = UTC
MEAN_ELEMENT_THEORY = SGP/SGP4

EPOCH          = 2026-03-11T20:00:01.999008
MEAN_MOTION    = 15.80825249
ECCENTRICITY   = .000137
INCLINATION    = 97.2683
RA_OF_ASC_NODE = 3.3183
ARG_OF_PERICENTER = 80.0703
MEAN_ANOMALY   = 165.5234

EPHEMERIS_TYPE = 0
CLASSIFICATION_TYPE = U
NORAD_CAT_ID   = 67892
ELEMENT_SET_NO = 999
REV_AT_EPOCH   = 410
BSTAR          = .92192E-5
MEAN_MOTION_DOT = .1626E-4
MEAN_MOTION_DDOT = 0

CCSDS_OMM_VERS = 2.0
CREATION_DATE  = 
ORIGINATOR     = 

OBJECT_NAME    = STARLINK-36803
OBJECT_ID      = 2026-035Q
CENTER_NAME    = EARTH
REF_FRAME      = TEME
TIME_SYSTEM    = UTC
MEAN_ELEMENT_THEORY = SGP/SGP4

EPOCH          = 2026-03-11T20:00:01.999008
MEAN_MOTION    = 15.81640832
ECCENTRICITY   = .0001224
INCLINATION    = 97.2708
RA_OF_ASC_NODE = 3.3112
ARG_OF_PERICENTER = 84.4236
MEAN_ANOMALY   = 135.0339

EPHEMERIS_TYPE = 0
CLASSIFICATION_TYPE = U
NORAD_CAT_ID   = 67893
ELEMENT_SET_NO = 999
REV_AT_EPOCH   = 410
BSTAR          = -.5833E-2
MEAN_MOTION_DOT = -.1031646E-1
MEAN_MOTION_DDOT = 0

CCSDS_OMM_VERS = 2.0
CREATION_DATE  = 
ORIGINATOR     = 

OBJECT_NAME    = STARLINK-36846
OBJECT_ID      = 2026-035R
CENTER_NAME    = EARTH
REF_FRAME      = TEME
TIME_SYSTEM    = UTC
MEAN_ELEMENT_THEORY = SGP/SGP4

EPOCH          = 2026-03-11T20:00:01.999008
MEAN_MOTION    = 15.81195309
ECCENTRICITY   = .0001383
INCLINATION    = 97.2703
RA_OF_ASC_NODE = 3.3142
ARG_OF_PERICENTER = 88.0050
MEAN_ANOMALY   = 140.3031

EPHEMERIS_TYPE = 0
CLASSIFICATION_TYPE = U
NORAD_CAT_ID   = 67894
ELEMENT_SET_NO = 999
REV_AT_EPOCH   = 410
BSTAR          = -.29352E-2
MEAN_MOTION_DOT = -.538391E-2
MEAN_MOTION_DDOT = 0

CCSDS_OMM_VERS = 2.0
CREATION_DATE  = 
ORIGINATOR     = 

OBJECT_NAME    = STARLINK-36866
OBJECT_ID      = 2026-035S
CENTER_NAME    = EARTH
REF_FRAME      = TEME
TIME_SYSTEM    = UTC
MEAN_ELEMENT_THEORY = SGP/SGP4

EPOCH          = 2026-03-11T20:00:01.999008
MEAN_MOTION    = 15.81070342
ECCENTRICITY   = .0000903
INCLINATION    = 97.2704
RA_OF_ASC_NODE = 3.3157
ARG_OF_PERICENTER = 91.7656
MEAN_ANOMALY   = 140.8847

EPHEMERIS_TYPE = 0
CLASSIFICATION_TYPE = U
NORAD_CAT_ID   = 67895
ELEMENT_SET_NO = 999
REV_AT_EPOCH   = 410
BSTAR          = -.20447E-2
MEAN_MOTION_DOT = -.379636E-2
MEAN_MOTION_DDOT = 0

CCSDS_OMM_VERS = 2.0
CREATION_DATE  = 
ORIGINATOR     = 

OBJECT_NAME    = STARLINK-36877
OBJECT_ID      = 2026-035T
CENTER_NAME    = EARTH
REF_FRAME      = TEME
TIME_SYSTEM    = UTC
MEAN_ELEMENT_THEORY = SGP/SGP4

EPOCH          = 2026-03-11T20:00:01.999008
MEAN_MOTION    = 15.81379863
ECCENTRICITY   = .0001378
INCLINATION    = 97.2708
RA_OF_ASC_NODE = 3.3120
ARG_OF_PERICENTER = 73.3673
MEAN_ANOMALY   = 150.5494

EPHEMERIS_TYPE = 0
CLASSIFICATION_TYPE = U
NORAD_CAT_ID   = 67896
ELEMENT_SET_NO = 999
REV_AT_EPOCH   = 410
BSTAR          = -.41717E-2
MEAN_MOTION_DOT = -.753133E-2
MEAN_MOTION_DDOT = 0

